NORAD_CAT_ID,OBJECT_NAME,OBJECT_TYPE,EPOCH,MEAN_MOTION,ECCENTRICITY,INCLINATION,RA_OF_ASC_NODE,ARG_OF_PERICENTER,MEAN_ANOMALY,BSTAR,MEAN_MOTION_DOT,MEAN_MOTION_DDOT,TLE_LINE0,TLE_LINE1,TLE_LINE2,SEMIMAJOR_AXIS,PERIOD,APOGEE,PERIGEE,DECAYED
53914.0,STARLINK-5040,PAYLOAD,2023-10-16 09:07:28,15.08856811,0.0001468,53.2172,283.4799,90.2618,269.8543,0.00017653,2.524e-05,0.0,0 STARLINK-5040,1 53914U 22119AE  23289.38018830  .00002524  00000-0  17653-3 0  9990,2 53914  53.2172 283.4799 0001468  90.2618 269.8543 15.08856811 59263,6917.829,95.436,540.71,538.678,0.0
53914.0,STARLINK-5040,PAYLOAD,2023-10-17 08:58:16,15.08849077,0.0001502,53.2164,279.0185,94.816,265.3004,0.00031648,4.754e-05,0.0,0 STARLINK-5040,1 53914U 22119AE  23290.37379751  .00004754  00000-0  31648-3 0  9990,2 53914  53.2164 279.0185 0001502  94.8160 265.3004 15.08849077 59411,6917.853,95.437,540.757,538.679,0.0
53914.0,STARLINK-5040,PAYLOAD,2023-10-17 16:55:11,15.08843718,0.000145,53.2174,277.5329,97.6032,262.5125,0.00015779,2.224e-05,0.0,0 STARLINK-5040,1 53914U 22119AE  23290.70499999  .00002224  00000-0  15779-3 0  9991,2 53914  53.2174 277.5329 0001450  97.6032 262.5125 15.08843718 59460,6917.869,95.437,540.737,538.731,0.0
53914.0,STARLINK-5040,PAYLOAD,2023-10-18 02:27:30,15.08847942,0.0001404,53.2177,275.7494,94.6321,265.4832,0.00010923,1.451e-05,0.0,0 STARLINK-5040,1 53914U 22119AE  23291.10243677  .00001451  00000-0  10923-3 0  9993,2 53914  53.2177 275.7494 0001404  94.6321 265.4832 15.08847942 59946,6917.856,95.437,540.692,538.75,0.0
53914.0,STARLINK-5040,PAYLOAD,2023-10-18 08:49:02,15.08854235,0.0001648,53.2174,274.5577,101.1194,258.9983,0.00014402,2.006e-05,0.0,0 STARLINK-5040,1 53914U 22119AE  23291.36739230  .00002006  00000-0  14402-3 0  9999,2 53914  53.2174 274.5577 0001648 101.1194 258.9983 15.08854235 59569,6917.837,95.437,540.842,538.562,0.0
53914.0,STARLINK-5040,PAYLOAD,2023-10-19 03:53:40,15.08846218,0.0001786,53.2175,270.9897,101.3912,258.7281,0.00012979,1.778e-05,0.0,0 STARLINK-5040,1 53914U 22119AE  23292.16227612  .00001778  00000-0  12979-3 0  9996,2 53914  53.2175 270.9897 0001786 101.3912 258.7281 15.08846218 59682,6917.861,95.437,540.962,538.491,0.0
53914.0,STARLINK-5040,PAYLOAD,2023-10-19 08:39:49,15.08851711,0.0001512,53.2172,270.0978,88.2841,271.8324,0.00026331,3.906e-05,0.0,0 STARLINK-5040,1 53914U 22119AE  23292.36099416  .00003906  00000-0  26331-3 0  9999,2 53914  53.2172 270.0978 0001512  88.2841 271.8324 15.08851711 60131,6917.845,95.437,540.756,538.664,0.0
53914.0,STARLINK-5040,PAYLOAD,2023-10-19 22:58:18,15.08840398,0.0001583,53.2171,267.4203,90.1389,269.9784,7.2586e-05,8.67e-06,0.0,0 STARLINK-5040,1 53914U 22119AE  23292.95715816  .00000867  00000-0  72586-4 0  9990,2 53914  53.2171 267.4203 0001583  90.1389 269.9784 15.08840398 60225,6917.879,95.438,540.839,538.649,0.0
53914.0,STARLINK-5040,PAYLOAD,2023-10-20 05:19:50,15.08849442,0.0001665,53.2173,266.2282,99.8164,260.3016,0.00024898,3.678e-05,0.0,0 STARLINK-5040,1 53914U 22119AE  23293.22211311  .00003678  00000-0  24898-3 0  9997,2 53914  53.2173 266.2282 0001665  99.8164 260.3016 15.08849442 59847,6917.852,95.437,540.868,538.565,0.0
53914.0,STARLINK-5040,PAYLOAD,2023-10-20 22:49:05,15.08834707,0.0001581,53.2171,262.9617,97.2956,262.8216,-7.4381e-05,-1.471e-05,0.0,0 STARLINK-5040,1 53914U 22119AE  23293.95076054 -.00001471  00000-0 -74381-4 0  9994,2 53914  53.2171 262.9617 0001581  97.2956 262.8216 15.08834707 60375,6917.897,95.438,540.855,538.668,0.0
53914.0,STARLINK-5040,PAYLOAD,2023-10-21 01:59:52,15.08832238,0.0001522,53.2171,262.3643,104.8464,255.2697,-7.4885e-05,-1.479e-05,0.0,0 STARLINK-5040,1 53914U 22119AE  23294.08324214 -.00001479  00000-0 -74885-4 0  9990,2 53914  53.2171 262.3643 0001522 104.8464 255.2697 15.08832238 59972,6917.904,95.438,540.822,538.716,0.0
53914.0,STARLINK-5040,PAYLOAD,2023-10-21 03:35:15,15.08831812,0.0001476,53.217,262.067,102.9452,257.1705,-6.0068e-05,-1.244e-05,0.0,0 STARLINK-5040,1 53914U 22119AE  23294.14948407 -.00001244  00000-0 -60068-4 0  9991,2 53914  53.2170 262.0670 0001476 102.9452 257.1705 15.08831812 60400,6917.905,95.438,540.791,538.749,0.0
53914.0,STARLINK-5040,PAYLOAD,2023-10-21 14:42:57,15.08840585,0.0001283,53.217,259.9911,99.6775,260.4362,3.3632e-05,2.47e-06,0.0,0 STARLINK-5040,1 53914U 22119AE  23294.61316117  .00000247  00000-0  33632-4 0  9997,2 53914  53.2170 259.9911 0001283  99.6775 260.4362 15.08840585 60479,6917.879,95.438,540.631,538.856,0.0
53914.0,STARLINK-5040,PAYLOAD,2023-10-22 01:50:38,15.08846437,0.0001099,53.2177,257.904,93.2744,266.8374,0.00012993,1.781e-05,0.0,0 STARLINK-5040,1 53914U 22119AE  23295.07683642  .00001781  00000-0  12993-3 0  9998,2 53914  53.2177 257.9040 0001099  93.2744 266.8374 15.08846437 60125,6917.861,95.437,540.486,538.965,0.0
53914.0,STARLINK-5040,PAYLOAD,2023-10-22 06:36:47,15.08860514,0.0001415,53.218,257.0137,121.0695,239.0437,0.00032842,4.946e-05,0.0,0 STARLINK-5040,1 53914U 22119AE  23295.27554735  .00004946  00000-0  32842-3 0  9991,2 53914  53.2180 257.0137 0001415 121.0695 239.0437 15.08860514 60151,6917.818,95.436,540.662,538.704,0.0
53914.0,STARLINK-5040,PAYLOAD,2023-10-22 14:33:43,15.08844565,0.0001925,53.2185,255.5268,72.1758,287.9444,5.0525e-05,5.16e-06,0.0,0 STARLINK-5040,1 53914U 22119AE  23295.60675783  .00000516  00000-0  50525-4 0  9993,2 53914  53.2185 255.5268 0001925  72.1758 287.9444 15.08844565 60200,6917.866,95.437,541.063,538.4,0.0
53914.0,STARLINK-5040,PAYLOAD,2023-10-23 03:16:50,15.08825313,0.0001428,53.2178,253.148,78.9716,281.1437,-2.284e-05,-6.51e-06,0.0,0 STARLINK-5040,1 53914U 22119AE  23296.13669173 -.00000651  00000-0 -22840-4 0  9999,2 53914  53.2178 253.1480 0001428  78.9716 281.1437 15.08825313 60284,6917.925,95.438,540.778,538.802,0.0
53914.0,STARLINK-5040,PAYLOAD,2023-10-23 14:24:31,15.08835847,0.0001055,53.2174,251.0668,83.4915,276.6197,2.7656e-06,-2.44e-06,0.0,0 STARLINK-5040,1 53914U 22119AE  23296.60036720 -.00000244  00000-0  27656-5 0  9995,2 53914  53.2174 251.0668 0001055  83.4915 276.6197 15.08835847 60356,6917.893,95.438,540.488,539.028,0.0
53914.0,STARLINK-5040,PAYLOAD,2023-10-24 04:42:59,15.08850001,0.0001328,53.2163,248.3942,76.4995,283.6146,0.00029384,4.393e-05,0.0,0 STARLINK-5040,1 53914U 22119AE  23297.19652302  .00004393  00000-0  29384-3 0  9996,2 53914  53.2163 248.3942 0001328  76.4995 283.6146 15.08850001 60442,6917.85,95.437,540.634,538.796,0.0
53914.0,STARLINK-5040,PAYLOAD,2023-10-24 14:15:18,15.08845556,0.0001282,53.2175,246.6056,99.7622,260.3515,0.000318,4.777e-05,0.0,0 STARLINK-5040,1 53914U 22119AE  23297.59396544  .00004777  00000-0  31800-3 0  9995,2 53914  53.2175 246.6056 0001282  99.7622 260.3515 15.08845556 60920,6917.863,95.437,540.615,538.842,0.0
53914.0,STARLINK-5040,PAYLOAD,2023-10-25 06:09:09,15.08853076,0.0001314,53.2166,243.6317,99.3084,260.8056,0.0003901,5.928e-05,0.0,0 STARLINK-5040,1 53914U 22119AE  23298.25636203  .00005928  00000-0  39010-3 0  9998,2 53914  53.2166 243.6317 0001314  99.3084 260.8056 15.08853076 60607,6917.84,95.437,540.614,538.796,0.0
53914.0,STARLINK-5040,PAYLOAD,2023-10-26 02:49:10,15.08849873,0.0001414,53.217,239.7686,99.3411,260.7741,0.00023544,3.462e-05,0.0,0 STARLINK-5040,1 53914U 22119AE  23299.11748216  .00003462  00000-0  23544-3 0  9998,2 53914  53.2170 239.7686 0001414  99.3411 260.7741 15.08849873 60736,6917.85,95.437,540.693,538.737,0.0
53914.0,STARLINK-5040,PAYLOAD,2023-10-26 05:59:56,15.08852245,0.0001448,53.2169,239.1728,100.8598,259.2557,0.00031405,4.715e-05,0.0,0 STARLINK-5040,1 53914U 22119AE  23299.24996090  .00004715  00000-0  31405-3 0  9994,2 53914  53.2169 239.1728 0001448 100.8598 259.2557 15.08852245 61170,6917.843,95.437,540.71,538.706,0.0
53914.0,STARLINK-5040,PAYLOAD,2023-10-27 02:40:00,15.08810541,0.0001203,53.2161,235.305,92.0328,268.0802,-6.8627e-05,-1.379e-05,0.0,0 STARLINK-5040,1 53914U 22119AE  23300.11111856 -.00001379  00000-0 -68627-4 0  9994,2 53914  53.2161 235.3050 0001203  92.0328 268.0802 15.08810541 60881,6917.97,95.439,540.668,539.003,0.0
53914.0,STARLINK-5040,PAYLOAD,2023-10-27 12:12:19,15.08824489,0.0001157,53.2173,233.5257,92.4338,267.6787,0.00023112,3.391e-05,0.0,0 STARLINK-5040,1 53914U 22119AE  23300.50855658  .00003391  00000-0  23112-3 0  9995,2 53914  53.2173 233.5257 0001157  92.4338 267.6787 15.08824489 60946,6917.928,95.439,540.593,538.992,0.0
53914.0,STARLINK-5040,PAYLOAD,2023-10-28 00:55:24,15.08849147,9.99e-05,53.2165,231.1458,80.8849,279.2256,0.00073413,0.00011418,0.0,0 STARLINK-5040,1 53914U 22119AE  23301.03847336  .00011418  00000-0  73413-3 0  9996,2 53914  53.2165 231.1458 0000999  80.8849 279.2256 15.08849147 61023,6917.852,95.437,540.409,539.026,0.0
53914.0,STARLINK-5040,PAYLOAD,2023-10-28 05:41:33,15.08881244,0.0001104,53.217,230.253,95.7098,264.402,0.0015031,0.00023742,0.0,0 STARLINK-5040,1 53914U 22119AE  23301.23719184  .00023742  00000-0  15031-2 0  9991,2 53914  53.2170 230.2530 0001104  95.7098 264.4020 15.08881244 61052,6917.754,95.435,540.383,538.856,0.0
53914.0,STARLINK-5040,PAYLOAD,2023-10-28 12:03:04,15.089116,0.0001143,53.2172,229.0641,101.4238,258.6882,0.0022296,0.00035444,0.0,0 STARLINK-5040,1 53914U 22119AE  23301.50214056  .00035444  00000-0  22296-2 0  9992,2 53914  53.2172 229.0641 0001143 101.4238 258.6882 15.08911600 61519,6917.662,95.433,540.317,538.736,0.0
53914.0,STARLINK-5040,PAYLOAD,2023-10-28 18:24:36,15.08931981,0.0001155,53.2173,227.8745,103.4211,256.691,0.0023987,0.00038191,0.0,0 STARLINK-5040,1 53914U 22119AE  23301.76708608  .00038191  00000-0  23987-2 0  9991,2 53914  53.2173 227.8745 0001155 103.4211 256.6910 15.08931981 61139,6917.599,95.432,540.263,538.665,0.0
53914.0,STARLINK-5040,PAYLOAD,2023-10-29 05:32:15,15.08968927,0.0001158,53.2171,225.7927,104.203,255.9091,0.0026771,0.00042728,0.0,0 STARLINK-5040,1 53914U 22119AE  23302.23073253  .00042728  00000-0  26771-2 0  9990,2 53914  53.2171 225.7927 0001158 104.2030 255.9091 15.08968927 61623,6917.486,95.429,540.152,538.55,0.0
